[{"OBJECT_NAME":"SIGI","OBJECT_ID":"2025-009Z","EPOCH":"2026-03-09T22:08:54.692736","MEAN_MOTION":15.23445824,"ECCENTRICITY":0.00019568,"INCLINATION":97.4047,"RA_OF_ASC_NODE":150.3738,"ARG_OF_PERICENTER":318.6476,"MEAN_ANOMALY":41.4612,"EPHEMERIS_TYPE":0,"CLASSIFICATION_TYPE":"U","NORAD_CAT_ID":62632,"ELEMENT_SET_NO":999,"REV_AT_EPOCH":6368,"BSTAR":0.00028660124,"MEAN_MOTION_DOT":6.759e-5,"MEAN_MOTION_DDOT":0},{"OBJECT_NAME":"HERMES-6","OBJECT_ID":"2025-052BK","EPOCH":"2026-03-09T21:29:23.907840","MEAN_MOTION":15.21631048,"ECCENTRICITY":0.00073357,"INCLINATION":97.4102,"RA_OF_ASC_NODE":322.8569,"ARG_OF_PERICENTER":144.5073,"MEAN_ANOMALY":215.6652,"EPHEMERIS_TYPE":0,"CLASSIFICATION_TYPE":"U","NORAD_CAT_ID":63489,"ELEMENT_SET_NO":999,"REV_AT_EPOCH":5472,"BSTAR":0.00042019054,"MEAN_MOTION_DOT":9.433e-5,"MEAN_MOTION_DDOT":0}]
